OPTICUBE 04             
1 41851U 16067D   19153.77010243 -.00000106  00000-0 -39570-5 0  9990
2 41851  97.9157 251.1901 0010526  79.6442 280.5965 14.96804982139531
AEROCUBE 8D             
1 41852U 16067E   19153.83873463 -.00000155  00000-0 -82662-5 0  9993
2 41852  97.9168 251.0847 0011235  79.5420 280.7066 14.96709680139527
AEROCUBE 8C             
1 41853U 16067F   19153.79441268  .00000000  00000-0  53260-5 0  9992
2 41853  97.9157 250.9773 0011253  81.4360 278.8136 14.96667767139511
PROMETHEUS 2-1          
1 41854U 16067G   19153.83090760  .00000473  00000-0  46519-4 0  9997
2 41854  97.9175 251.1412 0012056  80.8146 279.4438 14.96886219139520
PROMETHEUS 2-3          
1 41855U 16067H   19153.83329506  .00000299  00000-0  31301-4 0  9990
2 41855  97.9178 251.1588 0012218  80.9468 279.3135 14.96890998139528
INS-1B                  
1 41954U 17008G   19153.73672768  .00000901  00000-0  40210-4 0  9995
2 41954  97.4007 218.9876 0008822 191.0654 169.0390 15.23903051127376
BGUSAT                  
1 41999U 17008BD  19154.13676275  .00001505  00000-0  61271-4 0  9997
2 41999  97.4079 221.6830 0007415 202.3959 157.6956 15.26045396126929
DIDO-2                  
1 42000U 17008BE  19154.18503434  .00000641  00000-0  29502-4 0  9993
2 42000  97.4019 219.9747 0007638 208.8158 151.2658 15.23867057126846
PEASSS                  
1 42015U 17008BV  19153.76477934  .00000778  00000-0  34220-4 0  9991
2 42015  97.4028 220.4906 0005367 212.6987 147.3919 15.24821391127328
AL-FARABI 1             
1 42016U 17008BW  19153.77017369  .00000997  00000-0  42283-4 0  9996
2 42016  97.4042 221.0178 0005263 211.1359 148.9568 15.25443748127475
NAYIF-1 (EO-88)         
1 42017U 17008BX  19154.08601050  .00001023  00000-0  43251-4 0  9995
2 42017  97.4038 221.3401 0005260 209.8958 150.1981 15.25477389127549
PHOENIX                 
1 42706U 98067LP  19128.42254485  .08245211  12410-4  57150-3 0  9990
2 42706  51.5998 109.6560 0003143 270.9046 228.4560 16.40380041113340
ALTAIR PATHFINDER       
1 42711U 98067LS  19154.10196597  .00026312  00000-0  14367-3 0  9991
2 42711  51.6351  10.5812 0002851 102.1577 257.9744 15.79696735116626
ZA-AEROSAT              
1 42713U 98067LU  19151.03730059  .02928871  12128-4  58594-3 0  9990
2 42713  51.6172 356.2792 0012791 275.7272  84.2292 16.30383675116521
NJUST-1                 
1 42722U 98067MB  19154.09838284  .00129061  17872-4  30202-3 0  9997
2 42722  51.6333 351.3413 0002348 185.8570 271.6035 15.96730421115943
NSIGHT                  
1 42726U 98067MF  19154.19031878  .00015006  00000-0  12276-3 0  9991
2 42726  51.6373  27.9701 0005699 116.7490 243.4092 15.70773420115389
UCLSAT                  
1 42765U 17036A   19154.15994322  .00000759  00000-0  35514-4 0  9999
2 42765  97.3521 212.5013 0009765 286.8877  73.1288 15.22702687108109
LITUANICASAT-2          
1 42768U 17036D   19153.74487391  .00001307  00000-0  58925-4 0  9990
2 42768  97.3556 211.6880 0013332 276.7794  83.1926 15.22723920107880
AALTO-1                 
1 42775U 17036L   19153.74502370  .00000508  00000-0  25733-4 0  9996
2 42775  97.3507 210.8811 0012272 277.2156  82.7685 15.21308537107787
URSA MAIOR              
1 42776U 17036M   19154.10177283  .00000541  00000-0  27096-4 0  9990
2 42776  97.3515 211.3718 0012092 275.6922  84.2935 15.21438729107841
COMPASS 2               
1 42777U 17036N   19153.69852233  .00001069  00000-0  48622-4 0  9993
2 42777  97.3554 212.1008 0010784 278.5922  81.4092 15.22833743107832
DIAMOND RED             
1 42783U 17036U   19154.13395784  .00000646  00000-0  31135-4 0  9994
2 42783  97.3521 212.0907 0010478 287.9568  72.0526 15.22163537107880
PEGASUS                 
1 42784U 17036V   19154.11600908  .00000741  00000-0  34981-4 0  9998
2 42784  97.3525 212.2846 0010362 287.5419  72.4685 15.22451692107895
DIAMOND GREEN           
1 42785U 17036W   19153.73834808  .00000675  00000-0  32421-4 0  9997
2 42785  97.3525 211.7274 0010382 290.3482  69.6638 15.22163878107813
DIAMOND BLUE            
1 42786U 17036X   19154.13184015  .00000643  00000-0  30997-4 0  9992
2 42786  97.3524 212.1105 0010214 289.0545  70.9585 15.22161855107875
NUDTSAT                 
1 42787U 17036Y   19153.92657126  .00001337  00000-0  59119-4 0  9995
2 42787  97.3541 212.7484 0009888 288.4938  71.5235 15.23394073107741
SUCHAI                  
1 42788U 17036Z   19154.12731978  .00000862  00000-0  39772-4 0  9992
2 42788  97.3530 212.5836 0009926 286.6904  73.3243 15.22858870107989
SKCUBE                  
1 42789U 17036AA  19153.74781138  .00000824  00000-0  38250-4 0  9991
2 42789  97.3526 212.1583 0009804 288.4432  71.5739 15.22761526107847
VZLUSAT-1               
1 42790U 17036AB  19153.71634348  .00001124  00000-0  50148-4 0  9994
2 42790  97.3541 212.5471 0009336 287.6094  72.4123 15.23393489107860
ROBUSTA-1B              
1 42792U 17036AD  19154.14034052  .00000841  00000-0  38772-4 0  9994
2 42792  97.3527 212.6858 0009374 287.8132  72.2081 15.22926239107925
CICERO 6                
1 42793U 17036AE  19154.13043046  .00000580  00000-0  27981-4 0  9997
2 42793  97.3510 212.4759 0008668 290.2013  69.8291 15.22541812107988
D-SAT                   
1 42794U 17036AF  19153.90329784  .00000036  00000-0  85784-5 0  9990
2 42794  97.5408 199.3006 0126285 193.5788 166.2023 14.91085807105980
MAZAALAI (NUMSAT-1)     
1 42822U 98067MW  19131.43194823  .10190864  12355-4  76666-3 0  9990
2 42822  51.6054 100.7046 0005179 246.5694 204.7401 16.39672911105736
BRAC ONNESHA            
1 42823U 98067MX  19126.46325411  .10871672  12483-4  53364-3 0  9992
2 42823  51.6136 126.1830 0002073 268.7751  91.3478 16.43067843104944
NIGERIAEDUSAT-1         
1 42824U 98067MY  19133.12526632  .12220275  12529-4  51637-3 0  9993
2 42824  51.6091  92.5367 0003545 299.4874 174.6355 16.43636834105973
CORVUS BC2              
1 42846U 17042X   19154.11957797  .00000290  00000-0  33932-4 0  9999
2 42846  97.5678  48.7414 0011146 104.4583 255.7874 14.91967061102694
CORVUS BC1              
1 42847U 17042Y   19153.67148353  .00000106  00000-0  15705-4 0  9994
2 42847  97.5679  48.4148 0010746 105.1594 255.0815 14.92067152102626
MIRATA                  
1 43015U 17073C   19153.71725038  .00000415  00000-0  38238-4 0  9991
2 43015  97.7201  75.5544 0254604 209.5856 149.0749 14.78949473 82939
MAKERSAT 0              
1 43016U 17073D   19153.72876762  .00000273  00000-0  27094-4 0  9994
2 43016  97.7235  75.7632 0256818 209.8741 148.7603 14.78712924 82936
ASTERIA                 
1 43020U 98067NH  19154.14135277  .00019154  00000-0  16076-3 0  9992
2 43020  51.6437  39.0872 0002830  82.0435 278.0884 15.69947820 87419
DELLINGR (RBLE)         
1 43021U 98067NJ  19154.11047684  .00005669  00000-0  67329-4 0  9998
2 43021  51.6394  50.7799 0002866  61.4515 298.6768 15.62874668 87252
AEROCUBE 7B (OCSD B)    
1 43042U 17071F   19154.20103754  .00002038  00000-0  58214-4 0  9998
2 43042  51.6373 128.6470 0005216  94.5296 265.6285 15.41093118 83690
AEROCUBE 7C (OCSD C)    
1 43043U 17071G   19153.87686215  .00001901  00000-0  54938-4 0  9996
2 43043  51.6373 130.2458 0005404  97.5349 262.6250 15.41095303 83616
CHEFSAT                 
1 43044U 17071H   19154.15273915  .00001590  00000-0  43902-4 0  9991
2 43044  51.6381 123.9480 0005244  94.6593 265.4992 15.43669779 83723
ASGARDIA 1              
1 43049U 17071N   19154.15429632  .00001498  00000-0  45147-4 0  9995
2 43049  51.6382 128.3758 0002825 109.9335 250.1955 15.41226002 83650
ISARA                   
1 43050U 17071P   19154.16348173  .00002666  00000-0  68400-4 0  9993
2 43050  51.6369 124.7301 0002693 103.0963 257.0324 15.43175184 83704
PROPCUBE 2 (FAUNA)      
1 43052U 17071R   19153.83863078  .00001629  00000-0  47853-4 0  9991
2 43052  51.6379 129.2857 0002797 105.5002 254.6292 15.41495124 83613
CORVUS BC3              
1 43118U 18004H   19154.16405184  .00000499  00000-0  24402-4 0  9997
2 43118  97.4874 221.5716 0009134 312.8616  47.1852 15.22816781 77110
MICROMAS-2A             
1 43131U 18004W   19154.18317923  .00001225  00000-0  53459-4 0  9999
2 43131  97.4899 222.2426 0008092 315.3763  44.6822 15.24059994 77151
CICERO 7                
1 43143U 18004AJ  19154.14235977  .00001070  00000-0  46897-4 0  9992
2 43143  97.4885 222.4156 0006508 329.0647  31.0206 15.24203531 77169
GOMX-4B                 
1 43196U 18015E   19153.94524834  .00000242  00000-0  12940-4 0  9994
2 43196  97.3845 281.7075 0019649   6.6952 353.4543 15.23928624 73940
GOMX-4A                 
1 43197U 18015F   19154.14632238  .00000309  00000-0  15643-4 0  9993
2 43197  97.3881 281.9314 0019473   8.4245 109.1186 15.24021964 73984
1KUNS-PF                
1 43466U 98067NP  19153.95962224  .00012887  00000-0  13058-3 0  9997
2 43466  51.6384  54.2498 0001872  88.0045 272.1165 15.65644337 60450
UBAKUSAT                
1 43467U 98067NQ  19154.12786471  .00007680  00000-0  90456-4 0  9999
2 43467  51.6386  56.8710 0002667  38.4814 321.6370 15.62482440 60443
BATSU-CS1 (IRAZU)       
1 43468U 98067NR  19153.97616688  .00018088  00000-0  16295-3 0  9996
2 43468  51.6375  51.3416 0002008  98.0782 262.0443 15.68261452160488
CUBERRT                 
1 43546U 98067NU  19153.92494735  .00020519  00000-0  21945-3 0  9995
2 43546  51.6391  59.2632 0006200  77.7037 282.4652 15.63838547 50526
TEMPEST-D               
1 43547U 98067NV  19153.37022910  .00012525  00000-0  17160-3 0  9999
2 43547  51.6392  68.3058 0006412  64.9629 295.2028 15.57773397 50030
RAINCUBE                
1 43548U 98067NW  19153.14859461  .00008769  00000-0  10808-3 0  9991
2 43548  51.6380  66.0647 0006549  75.8599 284.3122 15.61062306 50495
HALOSAT                 
1 43549U 98067NX  19154.11203654  .00008672  00000-0  10728-3 0  9991
2 43549  51.6389  61.2588 0006478  81.4491 278.7236 15.60984124 50203
